CCSDS_OEM_VERS = 2.0  
CREATION_DATE  = 2026-05-08T16:26:22
ORIGINATOR     = ESOC/OPS-GFA                            
 
 



META_START
OBJECT_NAME          = LISA                                    
OBJECT_ID            = -1000                                   
CENTER_NAME          = SUN                     
REF_FRAME            = EME2000 
TIME_SYSTEM          = TCB
START_TIME           = 2036-12-23T00:00:30.346418            
STOP_TIME            = 2047-09-05T19:43:22.578670            
INTERPOLATION        = HERMITE                                 
INTERPOLATION_DEGREE = 7                                       
META_STOP

2038-04-20T07:24:59.371002    -1.47523531988615870e+08   -2.05835210872251242e+07   -9.48128550437442586e+06    4.39833057188438126e+00   -2.71764593652493822e+01   -1.15346935430536348e+01    5.88845184645124204e-06    8.21539157215967933e-07    3.78426234754456460e-07
2038-04-21T03:32:15.238830    -1.47189499298304290e+08   -2.25498476659732275e+07   -1.03157891598362885e+07    4.82434887373258281e+00   -2.71141129554673057e+01   -1.15060778516791373e+01    5.87397681503492938e-06    8.99849270526599801e-07    4.11655040635931772e-07
2038-04-21T23:39:31.106659    -1.46824646668450326e+08   -2.45114528825587928e+07   -1.11481329278262537e+07    5.24927404701729294e+00   -2.70461019546226176e+01   -1.14750587698381121e+01    5.85827057453506528e-06    9.77939342845986626e-07    4.44784196984994303e-07
2038-04-22T19:46:46.974488    -1.46429056471680790e+08   -2.64679269893169738e+07   -1.19781429756224975e+07    5.67301706242923220e+00   -2.69724428981662427e+01   -1.14416437686604304e+01    5.84133742668399298e-06    1.05579291312639419e-06    4.77806725212728030e-07
2038-04-23T15:54:02.842317    -1.46002817536132425e+08   -2.84188614893312827e+07   -1.28056460342462324e+07    6.09548921095494300e+00   -2.68931535113688938e+01   -1.14058408236486741e+01    5.82318191622542389e-06    1.13339359227600618e-06    5.10715678526726328e-07
2038-04-24T12:01:18.710146    -1.45546025128744990e+08   -3.03638492269166335e+07   -1.36304694368558973e+07    6.51660212204520839e+00   -2.68082527037947713e+01   -1.13676584122385584e+01    5.80380884562098190e-06    1.21072507156044031e-06    5.43504145576078401e-07
2038-04-25T08:08:34.577974    -1.45058780924489528e+08   -3.23024844700141326e+07   -1.44524411536324285e+07    6.93626778265006827e+00   -2.67177605632256743e+01   -1.13271055111214221e+01    5.78322328427164615e-06    1.28777112937604765e-06    5.76165253376867447e-07
2038-04-26T04:15:50.445803    -1.44541192966502607e+08   -3.42343629874906167e+07   -1.52713898244530056e+07    7.35439855672364651e+00   -2.66216983491534300e+01   -1.12841915933808128e+01    5.76143057226668743e-06    1.36451563639554235e-06    6.08692169518462051e-07
2038-04-27T00:23:06.313632    -1.43993375622096866e+08   -3.61590821243358999e+07   -1.60871447906503733e+07    7.77090720480204133e+00   -2.65200884859584818e+01   -1.12389266254953295e+01    5.73843631864842808e-06    1.44094255908614087e-06    6.41078103650628316e-07
2038-04-27T20:30:22.181460    -1.43415449539619088e+08   -3.80762408777509779e+07   -1.68995361271553189e+07    8.18570690325746142e+00   -2.64129545558926004e+01   -1.11913210642597498e+01    5.71424639420865959e-06    1.51703596160144691e-06    6.73316308252060539e-07
2038-04-28T16:37:38.049290    -1.42807541611126631e+08   -3.99854399771198630e+07   -1.77083946763193421e+07    8.59871126283188758e+00   -2.63003212919835399e+01   -1.11413858536765797e+01    5.68886691881777508e-06    1.59278000604640758e-06    7.05400078680048788e-07
2038-04-29T12:44:53.917119    -1.42169784945852369e+08   -4.18862819708583206e+07   -1.85135520847149454e+07    9.00983434605338829e+00   -2.61822145709795500e+01   -1.10891324218701026e+01    5.66230424321564127e-06    1.66815895110712705e-06    7.37322752497456591e-07
2038-04-30T08:52:09.784947    -1.41502318859429806e+08   -4.37783713231323957e+07   -1.93148408442108072e+07    9.41899068313845333e+00   -2.60586614064516766e+01   -1.10345726780750155e+01    5.63456492543837083e-06    1.74315714906960322e-06    7.69077708088066968e-07
2038-05-01T04:59:25.652776    -1.40805288883848488e+08   -4.56613145234401524e+07   -2.01120943386192508e+07    9.82609528598343829e+00   -2.59296899421716454e+01   -1.09777190097517572e+01    5.60565570163996695e-06    1.81775904118851180e-06    8.00658362542617099e-07
2038-05-02T01:06:41.520605    -1.40078846803110689e+08   -4.75347202120484710e+07   -2.09051468972129337e+07    1.02310636598483864e+01   -2.57953294458833433e+01   -1.09185842798806085e+01    5.57558345150292055e-06    1.89194915144934901e-06    8.32058168834861215e-07
2038-05-02T21:13:08.708877    -1.39323668099375069e+08   -4.93969502391837388e+07   -2.16933052551588863e+07    1.06335419394630133e+01   -2.56557059853438076e+01   -1.08572238444983675e+01    5.54437730375571195e-06    1.96566286912248262e-06    8.63249795938582229e-07
2038-05-03T17:19:35.897149    -1.38539437900356770e+08   -5.12488805803995207e+07   -2.24769403541041203e+07    1.10337197504131019e+01   -2.55107624910893946e+01   -1.07936124992462510e+01    5.51202463996121895e-06    2.03893491562282692e-06    8.94247946291866819e-07
2038-05-04T13:26:03.085421    -1.37726325747412682e+08   -5.30901273278536052e+07   -2.32558897798304744e+07    1.14315143826746670e+01   -2.53605314777569077e+01   -1.07277644789991271e+01    5.47853330667982912e-06    2.11175029340062355e-06    9.25046281063857282e-07
2038-05-05T09:32:30.273694    -1.36884507104675710e+08   -5.49203089227790684e+07   -2.40299921462823115e+07    1.18268437002234439e+01   -2.52050465424663308e+01   -1.06596944761142289e+01    5.44391132065606097e-06    2.18409409478495892e-06    9.55638500476434974e-07
2038-05-06T05:38:57.461966    -1.36014163355509162e+08   -5.67390462709179893e+07   -2.47990871446360126e+07    1.22196261541774085e+01   -2.50443423577168822e+01   -1.05894176373461075e+01    5.40816689064936861e-06    2.25595151803403609e-06    9.86018350732668075e-07
2038-05-07T01:45:24.650238    -1.35115481779533654e+08   -5.85459628396297097e+07   -2.55630155844810046e+07    1.26097807973399583e+01   -2.48784546632180934e+01   -1.05169495603021126e+01    5.37130843441158139e-06    2.32730788073636930e-06    1.01617962979508168e-06
2038-05-07T21:51:51.838511    -1.34188655514231205e+08   -6.03406847405572087e+07   -2.63216194287834391e+07    1.29972272997964655e+01   -2.47074202568465928e+01   -1.04423062895211807e+01    5.33334459081491897e-06    2.39814863056636940e-06    1.04611619201517958e-06
2038-05-08T17:58:19.026783    -1.33233883505136952e+08   -6.21228408017169610e+07   -2.70747418242961690e+07    1.33818859652129731e+01   -2.45312769849201864e+01   -1.03655043122591479e+01    5.29428422712105703e-06    2.46845935339006714e-06    1.07582195161237458e-06
2038-05-09T14:04:46.215055    -1.32251370448628187e+08   -6.38920626328774095e+07   -2.78222271290783733e+07    1.37636777474857794e+01   -2.43500637319808781e+01   -1.02865605540637510e+01    5.25413644141003824e-06    2.53822577872894832e-06    1.10529088500588614e-06
2038-05-10T10:11:13.403328    -1.31241326731320903e+08   -6.56479846880916730e+07   -2.85639209387884289e+07    1.41425242673906624e+01   -2.41638204102783547e+01   -1.02054923742225441e+01    5.21291056013665423e-06    2.60743378256851216e-06    1.13451703199361068e-06
2038-05-11T06:17:40.591600    -1.30203968370083883e+08   -6.73902443292494565e+07   -2.92996701134133935e+07    1.45183478288805219e+01   -2.39725879491456553e+01   -1.01223175611668950e+01    5.17061613086077093e-06    2.67606938753127866e-06    1.16349449578667761e-06
2038-05-12T02:24:07.779873    -1.29139516956680208e+08   -6.91184818945137858e+07   -3.00293228060987145e+07    1.48910714346801800e+01   -2.37764082844585118e+01   -1.00370543279152873e+01    5.12726291010767689e-06    2.74411876039376612e-06    1.19221744189085975e-06
2038-05-12T22:30:34.968145    -1.28048199611046404e+08   -7.08323407755077183e+07   -3.07527284957415983e+07    1.52606188008271051e+01   -2.35753243483700672e+01   -9.94972130763909135e+00    5.08286084637685229e-06    2.81156820695828435e-06    1.22068009583923656e-06
2038-05-13T18:37:02.156417    -1.26930248947219104e+08   -7.25314675071162432e+07   -3.14697380250114314e+07    1.56269143698068191e+01   -2.33693800595124799e+01   -9.86033754943402663e+00    5.03742005829779048e-06    2.87840416427940283e-06    1.24887673977640715e-06
2038-05-14T14:43:29.344690    -1.25785903055919319e+08   -7.42155118737690449e+07   -3.21802036454610005e+07    1.59898833219317140e+01   -2.31586203138571314e+01   -9.76892251438049186e+00    4.99095080796849081e-06    2.94461319025187491e-06    1.27680170789705590e-06
2038-05-15T10:49:56.532962    -1.24615405507804289e+08   -7.58841270360690802e+07   -3.28839790713916421e+07    1.63494515846121082e+01   -2.29430909764249016e+01   -9.67549607197596551e+00    4.94346346932895088e-06    3.01018195051438909e-06    1.30444938071886557e-06
2038-05-16T06:57:07.974314    -1.23418265897606939e+08   -7.75379750098206252e+07   -3.35813433943645433e+07    1.67057624777043330e+01   -2.27227027789650862e+01   -9.58001955469999622e+00    4.89493922988431619e-06    3.07513704729185899e-06    1.33183097705782983e-06
2038-05-17T03:04:19.415665    -1.22195446348910317e+08   -7.91756901523325741e+07   -3.42717206450347304e+07    1.70585224972085285e+01   -2.24976338718239965e+01   -9.48257016820431886e+00    4.84541747529830826e-06    3.13942506652268925e-06    1.35892397710406866e-06
2038-05-17T23:11:30.857017    -1.20947206676712170e+08   -8.07969352214161307e+07   -3.49549686990670636e+07    1.74076597969912967e+01   -2.22679330341379682e+01   -9.38316901030244210e+00    4.79490941863154660e-06    3.20303327626276961e-06    1.38572302163584550e-06
